{
  "type": "Feature",
  "properties": {
    "ward": "Shivajinagar-Ghole Road",
    "city": "Pune"
  },
  "geometry": {
    "type": "Polygon",
    "coordinates": [
      [
        [73.844744, 18.5316031],
        [73.842159, 18.5269373],
        [73.8413477, 18.5249378],
        [73.8408643, 18.5227114],
        [73.8412441, 18.5188479],
        [73.8421297, 18.515176],
        [73.8683991, 18.510781],
        [73.8676168, 18.5257089],
        [73.846675, 18.5311011],
        [73.844744, 18.5316031]
      ]
    ]
  }
}
